#dP2023  2 20  0  0  0.00000000      96 __u+U ITR00 EXT  IAC
## 2250  86400.00000000   900.00000000 59995 0.0000000000000
+  120   C06C07C08C09C10C11C12C13C14C16C19C20C21C22C23C24C25
+        C26C27C28C29C30C32C33C34C35C36C37C38C39C40C41C42C43
+        C44C45C46E01E02E03E04E05E07E08E09E10E11E12E13E14E15
+        E18E19E21E24E25E26E27E30E31E33E34E36G01G02G03G04G05
+        G06G07G08G09G10G11G12G13G14G15G16G17G18G19G20G21G22
+        G23G24G25G26G27G28G29G30G31G32J02J03J04R01R02R03R04
+        R05R07R08R09R11R12R13R14R15R16R17R18R19R20R21R22R24
+        R25  0  0  0  0  0  0  0  0  0  0  0  0  0  0  0  0
++         0  0  0  0  0 14  0  0 10  0  7  9  9  9  7  8  9
++         7  8  9  7  9  9  7  7  9  7 10  0  0  0 10  8  8
++         7  9  7  7  7  8  8  7  7  8  8  8  8  8  7  7  7
++         8  7  7  7  7  7  8  8  6  8  8  8  8  7  6  9  6
++         7  7  7  7  8  7  6  7  7  6  7  7  6  6  7  8  7
++         7  7  6  7  7  7  8  8  7  8  9  9  8  9  8  9  9
++         9  8  7  8  7  7  6  8  8  8  7  7  8  7  9  8 10
++         8  0  0  0  0  0  0  0  0  0  0  0  0  0  0  0  0
%c M  cc GPS ccc cccc cccc cccc cccc ccccc ccccc ccccc ccccc
%c cc cc ccc ccc cccc cccc cccc cccc ccccc ccccc ccccc ccccc
%f  0.0000000  0.000000000  0.00000000000  0.000000000000000
%f  0.0000000  0.000000000  0.00000000000  0.000000000000000
%i    0    0    0    0      0      0      0      0         0
%i    0    0    0    0      0      0      0      0         0
/* IAC                                ULTRA-RAPID PREDICTION
/* S/V CLOCKS ARE ALIGNED TO GNSS TIME                      
/* G:C1WC2W R:C1PC2P E:C1XC5X C:C2IC6I J:C1CC2S             
/* PCV:IGS20_2247 OL/AL:FES2004  NONE     YN ORB:CoN CLK:CoN
*  2023 02 20 20 30  0.00000000
PC06      0.000000      0.000000      0.000000   -191.728495
PC07      0.000000      0.000000      0.000000     84.958936
PC08      0.000000      0.000000      0.000000    524.838474
PC09      0.000000      0.000000      0.000000    756.177608
PC10      0.000000      0.000000      0.000000      6.968040
PC11  10198.022780 -13581.294572  22214.651470   -109.385895
PC12  17583.933584   5951.450654  20874.961305    464.090102
PC13      0.000000      0.000000      0.000000    212.530364
PC14  19501.858319 -10012.131632 -17215.085367    503.370814
PC16      0.000000      0.000000      0.000000    157.365840
PC19 -10020.169053  14077.956652  21945.963631   -894.603683
PC20 -24982.624168   5333.236414  11283.009666    714.505280
PC21  25956.837622   7384.055567   7083.564411   -910.244305
PC22  11435.748563  15146.042430  20454.735098   -622.675982
PC23   -987.254506 -21140.319348  18187.571704   -879.505322
PC24  20999.241603 -11983.698315 -13979.267346   -385.531458
PC25  13055.701981 -24342.953529   4034.665745     75.376181
PC26  16158.660077   4736.906565 -22275.962468    -81.607408
PC27 -18143.874224 -14421.771957 -15548.199358     99.761668
PC28 -11281.601367 -25522.737038    -44.112067     72.744066
PC29  -2460.727282  21984.699458 -17020.087309     83.770368
PC30 -15288.473837   4924.861101 -22824.691851      1.090864
PC32 -26013.850556  -7189.567494  -7094.778504   -616.944858
PC33  10017.414056 -14122.392025 -21873.004101   -872.303694
PC34  14748.220031  -6214.228381  22851.180775    110.549178
PC35  11484.808633  25436.475244  -1101.640178    677.100173
PC36 -14061.957715  23858.428415  -3377.193421   -611.957940
PC37 -15163.767079  -6591.614989  22481.930555   -816.722542
PC38      0.000000      0.000000      0.000000     60.127640
PC39      0.000000      0.000000      0.000000     -1.893461
PC40      0.000000      0.000000      0.000000    -15.635198
PC41 -10865.285792 -15224.233741 -20654.208677   -635.868075
PC42  25595.066496  -4548.174141 -10072.645780   -825.899027
PC43   3230.218773 -21499.885242  17471.606392      8.166080
PC44  18726.554087  13950.344216  15295.126614     21.647226
PC45   1289.757302  20835.299092 -18515.314856    -62.995851
PC46 -20847.370152  13518.278028  12653.642471    -34.817452
PE01  18910.096736 -18178.413839  13721.294398   -600.333003
PE02 -18493.321667  18294.123149 -14112.657171     22.002029
PE03  -6936.428743  15862.284203  24007.818588   -651.998486
PE04 -12349.894077 -22347.242006 -14964.332330    -62.623964
PE05 -22593.428865   -115.927407  19126.578134    -93.421609
PE07  24791.146807  15884.601964  -3013.222910    -24.422624
PE08  12293.432511  22249.736922  15161.634627    -39.341764
PE09 -24769.695648 -15963.249182   2853.218763   -843.203654
PE10  -8425.728338 -22751.213561 -16958.402658   -513.833739
PE11 -13483.738233 -12896.387596 -22978.580893    964.975502
PE12  -2510.100872 -28117.602661  -8861.091653   -429.758247
PE13  13101.181746  13819.504628  22672.299252     -0.406613
PE14 -26486.093672  -3991.677103 -18372.988454    147.865111
PE15   2321.806273  28248.722261   8562.020373     -2.489066
PE18  18009.195512    -34.397837  15119.981459   -367.606850
PE19   9486.222651 -13966.051118 -24305.609365  -3185.673877
PE21  27850.817027  -9567.265595  -3055.998712   -513.315781
PE24 -21089.471333  -5968.373432  19859.912769  -1125.215415
PE25 -27875.319095   9353.010971   3357.723166   -599.803648
PE26  16171.346047  -9403.119792  22946.499291     24.263739
PE27  21726.579734   5234.392548 -19422.278573   -517.145100
PE30   2121.472291  17104.764934 -24078.150532  -1258.682572
PE31  -2849.506332 -16817.356207  24191.583220   -516.575450
PE33   9763.385366 -25882.630965  10520.758497   -451.444137
PE34  -9628.725954  26001.949726 -10362.068855    -31.133303
PE36 -16080.131626   8552.912983 -23330.822497    -15.402857
PG01  13344.844318 -16905.146142  14983.773797    210.347202
PG02 -10523.059455  20826.367424 -12278.028628   -619.494133
PG03  22055.840536 -12971.520609  -7021.229090   -360.667997
PG04  12675.208645  -8812.047798 -21615.582013    -23.192366
PG05 -24977.463456   3910.409433  -8503.254621   -116.680220
PG06  -6529.175179 -20471.302127 -15479.529483    574.582277
PG07   6505.275123 -25290.939138  -2607.473002    237.267233
PG08  20793.153074   1789.831702  16594.260883   -109.442697
PG09   1685.083188 -17088.530447 -20325.187011   -214.516847
PG10   5492.902662  13899.491067  22133.378997    -25.550580
PG11 -13477.557637  -7821.953865 -21502.180008   -109.646269
PG12 -23640.647845  10728.349706  -5630.985308   -342.753349
PG13 -20951.739165 -10417.718391  12575.560394    479.282713
PG14  -2131.530906 -15476.218570  21475.172125    -22.366939
PG15 -20850.067954    973.288936  16126.784618     15.195561
PG16  24803.948802    896.604884 -10373.344233   -519.169055
PG17  -9946.128961 -21341.264962  12624.803619    701.266555
PG18  -4691.234663  26053.897716    690.345957   -148.986613
PG19 -17395.131937 -20146.876286   1987.513475    280.366855
PG20 -19815.096544  -3135.356086 -17269.771434    449.481146
PG21  15209.393400  -7890.756705  20658.032626    154.096566
PG22  18960.633996  18719.988274   -201.551918    431.043373
PG23  -7508.131739  16894.659196  19017.719193      7.029034
PG24 -14252.546544  13213.856049  17566.540859    -82.082147
PG25 -16280.892308  16213.610320 -13393.962258    421.768923
PG26  16236.429653   8579.882723 -19412.383236    241.641533
PG27  22579.125877  11851.424370   7924.059102     97.677764
PG28   6576.077959  21776.171521 -13747.519326     20.126093
PG29  -5842.888620  14543.806372 -21476.974219   -587.191028
PG30  -2139.046237 -24747.601257   9123.129693   -529.627387
PG31   8336.799417  18737.392660 -16791.932530   -209.782662
PG32  13774.641857  20576.400291  10048.184393   -402.192029
PJ02 -36230.188927  18670.981949  -6221.570740     -0.963877
PJ03 -19919.833600  27266.066303 -20613.371147      0.362007
PJ04 -27062.145166  28958.550730  20272.482233     94.240046
PR01   2449.715238  11763.661554  22504.318628     23.405620
PR02  19675.588595  11499.769981  11574.426438    -23.254282
PR03  24522.216586   4266.300624  -5671.006913     72.845097
PR04  15645.689652  -4866.432031 -19523.149176    176.565694
PR05  -1637.382329 -11505.493843 -22688.924587    108.077047
PR07 -24328.464502  -3777.150515   6616.049495     50.301983
PR08 -15431.283183   5209.023577  19681.526840    -69.537159
PR09  -7668.765234  -8362.179613  22856.430435    105.167396
PR11 -18743.258277  17172.206428   2199.033895     -7.315609
PR12  -8059.241394  18400.680149 -15689.951847     25.136825
PR13   5909.209157   9647.007546 -22883.090058    -32.246485
PR14  18084.007249  -6381.614135 -16808.025088     24.362434
PR15  18593.358015 -17433.044290  -1016.551188     90.919261
PR16   8237.211781 -18497.439203  15496.156687     11.504642
PR17  11542.569869   4636.649328  22274.811346    606.599914
PR18   6681.980407 -12846.718610  21000.668931     67.797554
PR19   -232.897363 -23444.541164  10046.487706   -222.634115
PR20  -9080.439966 -21348.868830 -10537.557898    -88.086617
PR21 -11206.874677  -2948.596950 -22723.801912   -374.868522
PR22  -7112.792260  13558.412441 -20380.125735     71.803836
PR24  10175.939545  20621.741898  11051.510598    148.278135
PR25 -11627.170621  -5498.545920 -22024.091923     55.647542
EOF
